{
"type": "FeatureCollection",
"name": "municipios_pbsv",
"crs": { "type": "name", "properties": { "name": "urn:ogc:def:crs:OGC:1.3:CRS84" } },
"features": [
{ "type": "Feature", "properties": { "clave_geo": "14032", "clave_municipio": 32, "municipio": "Chiquilistlán", "area_km2": 315.52287620627658 }, "geometry": { "type": "Polygon", "coordinates": [ [ [ -103.951653286233423, 19.981608319614644 ], [ -103.959100197469596, 19.983039206433045 ], [ -103.961517105895609, 19.984386092386266 ], [ -103.962469213958585, 19.983911381189436 ], [ -103.963085620728037, 19.982108221993816 ], [ -103.965931774417598, 19.98329534891062 ], [ -103.965369643372995, 19.984871153900851 ], [ -103.96610649085973, 19.986085596606983 ], [ -103.966042799050911, 19.986984016924637 ], [ -103.967163720551895, 19.988229745235497 ], [ -103.966875701082685, 19.989530008892267 ], [ -103.965987664472777, 19.989795386803578 ], [ -103.964884873423927, 19.991124339251449 ], [ -103.962855874448252, 19.99538474196266 ], [ -103.961633775961587, 20.001067244484997 ], [ -103.960203986706119, 20.003669748457423 ], [ -103.958280130233021, 20.005272211230722 ], [ -103.955668264383135, 20.011045182319986 ], [ -103.961648879101361, 20.016815397796105 ], [ -103.964080260766664, 20.017778369391074 ], [ -103.969724724971684, 20.018588358619311 ], [ -103.971353922855187, 20.017965342670934 ], [ -103.974255202087747, 20.018714053330061 ], [ -103.977955779023503, 20.018563777029666 ], [ -103.980970072127889, 20.019584098499873 ], [ -103.982778458655758, 20.020823334845151 ], [ -103.983412208021704, 20.021875101082614 ], [ -103.984453446040007, 20.0219985394369 ], [ -103.987554018163479, 20.024492046386413 ], [ -103.988272695568313, 20.025724993813647 ], [ -103.986971983173632, 20.025807910372148 ], [ -103.98649080743445, 20.026302112422798 ], [ -103.986349324915992, 20.028984866673952 ], [ -103.9842632140832, 20.029289151399258 ], [ -103.98341821470234, 20.029862575793327 ], [ -103.983456690858134, 20.032799353975879 ], [ -103.980325543985657, 20.037994851519695 ], [ -103.980289981945788, 20.039060841054088 ], [ -103.981437734416417, 20.041958827970227 ], [ -103.980704934628463, 20.045876032199956 ], [ -103.974409918911419, 20.050854356600411 ], [ -103.971721314331376, 20.054064420833257 ], [ -103.968666538276139, 20.059151687383725 ], [ -103.964620626458114, 20.060781530152024 ], [ -103.963472736371799, 20.062301799676536 ], [ -103.964066846627617, 20.065024964335375 ], [ -103.96341793835704, 20.067731803975931 ], [ -103.965296275931934, 20.07002879027106 ], [ -103.963743311440979, 20.072061707107505 ], [ -103.963632372620353, 20.077301631619129 ], [ -103.962497406432377, 20.079743580606433 ], [ -103.962627721311364, 20.08028647410552 ], [ -103.96459783468103, 20.081734674947349 ], [ -103.964223749448294, 20.083358865554562 ], [ -103.959194843888, 20.086021862504996 ], [ -103.957391730453381, 20.085351636770547 ], [ -103.956425056989715, 20.085463387054784 ], [ -103.955473497036579, 20.086180596246976 ], [ -103.954787342048235, 20.088697424245673 ], [ -103.952581727372248, 20.089587896274132 ], [ -103.952081426512166, 20.091473332884807 ], [ -103.948661225650682, 20.092347503580662 ], [ -103.948042904197891, 20.094711100295154 ], [ -103.946141461914209, 20.095865326178984 ], [ -103.946039535183559, 20.096804400626723 ], [ -103.948989637963848, 20.100463267079189 ], [ -103.949135068416098, 20.101602595679118 ], [ -103.948320021808101, 20.103341574595483 ], [ -103.946679978340555, 20.10400944714743 ], [ -103.945520386824541, 20.105773459943144 ], [ -103.944197573636956, 20.106199247815375 ], [ -103.943373307151859, 20.10787489699117 ], [ -103.943656229361565, 20.109900520187889 ], [ -103.943324415349352, 20.110883390770219 ], [ -103.942355999492491, 20.11122996692103 ], [ -103.939577864531387, 20.110436243514588 ], [ -103.938247688041614, 20.110527630951577 ], [ -103.935234953657371, 20.116138507989017 ], [ -103.932420110401722, 20.116519045942557 ], [ -103.928297588888924, 20.119294999832135 ], [ -103.92824578535857, 20.121282462085428 ], [ -103.927597449004281, 20.12237179685679 ], [ -103.929094584989571, 20.124468062877995 ], [ -103.928609890239287, 20.128214786149631 ], [ -103.925760254423281, 20.130853830480454 ], [ -103.92558386787762, 20.131467157963598 ], [ -103.926636447822446, 20.134229348823375 ], [ -103.925720737495652, 20.136636201787415 ], [ -103.923368105836872, 20.139314368155333 ], [ -103.923919759628333, 20.142579489070837 ], [ -103.922920294610748, 20.146024871060767 ], [ -103.923708594646271, 20.149661885749097 ], [ -103.92269615746514, 20.153595089021501 ], [ -103.921357356353695, 20.154887976023868 ], [ -103.921661416004923, 20.156588475030137 ], [ -103.922849920823893, 20.157679986854838 ], [ -103.92267454162824, 20.158139714039404 ], [ -103.917854134967456, 20.157866196022791 ], [ -103.917190106080113, 20.158422300858845 ], [ -103.916836070272041, 20.159811556943364 ], [ -103.915068552433667, 20.160821658847283 ], [ -103.913817298843128, 20.160506742799754 ], [ -103.912049781665004, 20.158752019309976 ], [ -103.908824858380626, 20.158822411868258 ], [ -103.907357532300338, 20.156563529323076 ], [ -103.905802875180868, 20.157231518552347 ], [ -103.905671075662426, 20.15555014037724 ], [ -103.90488139012237, 20.154912761860967 ], [ -103.904119512513816, 20.155775406414232 ], [ -103.903903057666568, 20.159370091623824 ], [ -103.902359948401738, 20.159748992357965 ], [ -103.901214880851853, 20.160672479238876 ], [ -103.897812969821373, 20.158690563405237 ], [ -103.897807398625659, 20.158121308217201 ], [ -103.896822447707251, 20.158042856819318 ], [ -103.895467637921044, 20.158856568283447 ], [ -103.894386690174741, 20.158822676941323 ], [ -103.892883504218617, 20.160322113147917 ], [ -103.891326525141736, 20.159950904626889 ], [ -103.890152052938518, 20.160964483813967 ], [ -103.889156179856386, 20.161075659711088 ], [ -103.888255182066047, 20.159949604238435 ], [ -103.886877441722206, 20.159940897473408 ], [ -103.884541591539431, 20.161462096836544 ], [ -103.884015041352001, 20.162850181074049 ], [ -103.877447918537598, 20.164651598231671 ], [ -103.871378402082584, 20.167757020424055 ], [ -103.870479329393078, 20.167706075952513 ], [ -103.86888178318604, 20.168978807891605 ], [ -103.86523802701214, 20.168720433495572 ], [ -103.864265846825873, 20.170837422242773 ], [ -103.865296028688277, 20.174880167202115 ], [ -103.863483707371003, 20.175772953403435 ], [ -103.862295969360432, 20.178090824456568 ], [ -103.860342931389141, 20.178531893726795 ], [ -103.859792984228022, 20.179744690986155 ], [ -103.857526159035103, 20.180416269931783 ], [ -103.852471872601669, 20.180913271939573 ], [ -103.851150702987312, 20.181917808407498 ], [ -103.849490038123847, 20.181974293710791 ], [ -103.847834127987397, 20.179564187958789 ], [ -103.84799572875599, 20.177331464282069 ], [ -103.84762512450132, 20.176211528118603 ], [ -103.846544996945156, 20.175172765298285 ], [ -103.842878371279014, 20.173893360984497 ], [ -103.842272346348253, 20.173111790953907 ], [ -103.842984435856678, 20.17251372679792 ], [ -103.844523225396472, 20.16633784389931 ], [ -103.844652265793712, 20.164531742278545 ], [ -103.843840554988446, 20.162746136517889 ], [ -103.844066005903969, 20.161673376834869 ], [ -103.845246218555133, 20.158086261942898 ], [ -103.846768640072696, 20.156362981218905 ], [ -103.846913885232084, 20.154373459104541 ], [ -103.843150765366119, 20.156162371824294 ], [ -103.841658875289269, 20.158664322882419 ], [ -103.840630732986938, 20.157961851387608 ], [ -103.838936909168126, 20.158004898722048 ], [ -103.836115307119968, 20.154010823545544 ], [ -103.835343320049716, 20.153608174439043 ], [ -103.83330177334652, 20.154100623725345 ], [ -103.832061208632766, 20.153667749707306 ], [ -103.83108582127096, 20.15231504883651 ], [ -103.830988386130826, 20.151266331651509 ], [ -103.830142112321099, 20.150565009665215 ], [ -103.82803194589188, 20.149999838371894 ], [ -103.826055505077818, 20.146905711365719 ], [ -103.825599756077182, 20.142601973593766 ], [ -103.823525651783825, 20.141070239888311 ], [ -103.822875934001388, 20.139683532390418 ], [ -103.817872566458107, 20.138412226214992 ], [ -103.814300892624686, 20.136319196040329 ], [ -103.812926397821286, 20.135912398547532 ], [ -103.809391440518581, 20.136566176585362 ], [ -103.808246540659596, 20.136160894307874 ], [ -103.807568007089486, 20.134810081638182 ], [ -103.806017449235057, 20.134917037454304 ], [ -103.803921833538752, 20.133737305067363 ], [ -103.800712824687622, 20.134302771403558 ], [ -103.795376011176543, 20.132902080748593 ], [ -103.794114798157636, 20.133950551453577 ], [ -103.792892534412843, 20.133662097524976 ], [ -103.790673331579939, 20.1348846772912 ], [ -103.788562984391376, 20.134391326124039 ], [ -103.78513970503262, 20.135442921779404 ], [ -103.784406282848295, 20.135031289073122 ], [ -103.783579081718415, 20.135612854557206 ], [ -103.782339517001361, 20.135089298730751 ], [ -103.781002725251938, 20.133535074176329 ], [ -103.779513146940175, 20.13318143438406 ], [ -103.778449218993458, 20.130987598299924 ], [ -103.780038464335334, 20.129589149721902 ], [ -103.778790471474636, 20.126463438428857 ], [ -103.777927618358049, 20.125481680442043 ], [ -103.776829521591864, 20.125230119732368 ], [ -103.774429403080006, 20.121436830012577 ], [ -103.769086363459749, 20.117425224732433 ], [ -103.765328927311131, 20.120498428981854 ], [ -103.764091401262732, 20.120558151398381 ], [ -103.761603023795374, 20.119653084671626 ], [ -103.760928914907737, 20.116532597969581 ], [ -103.75347942230745, 20.114995733611387 ], [ -103.753999986410093, 20.113903062032051 ], [ -103.750366364262376, 20.112567288789499 ], [ -103.749531223286368, 20.110537547371337 ], [ -103.744666118998353, 20.104124341339904 ], [ -103.743462219669695, 20.10157696073157 ], [ -103.740565269360729, 20.099062672307351 ], [ -103.73934735291364, 20.097084366226756 ], [ -103.736436062509625, 20.09399167948936 ], [ -103.735675953007885, 20.092179256014894 ], [ -103.735045286179528, 20.086157491963505 ], [ -103.734490885338687, 20.084933806847577 ], [ -103.736553421601599, 20.082933792147873 ], [ -103.736934971503516, 20.081861366853165 ], [ -103.735661225359024, 20.079710977310146 ], [ -103.737720637306282, 20.078090388295056 ], [ -103.737880703031664, 20.0760134999868 ], [ -103.737071093474981, 20.073224956835222 ], [ -103.737469204653863, 20.072468868816102 ], [ -103.737899937503414, 20.073610347391014 ], [ -103.740626986841065, 20.074587513041958 ], [ -103.741192583895767, 20.074410845876887 ], [ -103.741190738561784, 20.073444094725915 ], [ -103.742339192963684, 20.072124138842234 ], [ -103.742375010433207, 20.071229934772692 ], [ -103.744217555924578, 20.070402791576875 ], [ -103.742840773243742, 20.067980670195297 ], [ -103.744832092462786, 20.067678603984522 ], [ -103.745421735003632, 20.065677032073527 ], [ -103.746880435171775, 20.063808111027267 ], [ -103.751560853737942, 20.06321782444963 ], [ -103.752629280976251, 20.064743244600979 ], [ -103.753506430786672, 20.065065658082762 ], [ -103.75572579065711, 20.062515363863564 ], [ -103.757573463153662, 20.062230208057581 ], [ -103.758569078953485, 20.063294298371261 ], [ -103.760330989382936, 20.062972371480651 ], [ -103.761042625427208, 20.063673056652149 ], [ -103.761136450244024, 20.065119313867498 ], [ -103.764052692277005, 20.065139734432812 ], [ -103.7645203648662, 20.066471150371857 ], [ -103.765207381398383, 20.066656652651481 ], [ -103.766098372400521, 20.066437001468213 ], [ -103.766802862089207, 20.065610698535515 ], [ -103.769655007106238, 20.065269178991496 ], [ -103.770306440153618, 20.066339845617577 ], [ -103.77302480826819, 20.067217069377293 ], [ -103.773592745688504, 20.067961884308669 ], [ -103.773200799040723, 20.070407654769664 ], [ -103.773762566588715, 20.071947508605039 ], [ -103.774355966316534, 20.071879346260751 ], [ -103.774937680378997, 20.070853388120589 ], [ -103.776553281599774, 20.07090975866878 ], [ -103.777300819828568, 20.069460293450337 ], [ -103.778056102368538, 20.070712353509968 ], [ -103.779343035997357, 20.071227211917066 ], [ -103.78019410224276, 20.072461855435073 ], [ -103.782448353682469, 20.072784597758581 ], [ -103.782831469655562, 20.073943723510578 ], [ -103.783887336992493, 20.073426962898974 ], [ -103.784740354066741, 20.075655454999545 ], [ -103.786076242118625, 20.074788240907857 ], [ -103.786836624291453, 20.075389778247342 ], [ -103.787199179369239, 20.074253851095737 ], [ -103.785728047081449, 20.072816206509032 ], [ -103.786807052963781, 20.071775553406468 ], [ -103.786109343451656, 20.070487782925952 ], [ -103.784949644517553, 20.0708321781416 ], [ -103.784554938213617, 20.069934993018109 ], [ -103.785060364234951, 20.068872332964748 ], [ -103.786536558743435, 20.068403619379822 ], [ -103.787518917538165, 20.068735625450522 ], [ -103.789036195118015, 20.067896734806713 ], [ -103.788338565417803, 20.065353098962731 ], [ -103.789873058345904, 20.061017744039155 ], [ -103.789428944548661, 20.060328037132368 ], [ -103.78947855569993, 20.057599784123337 ], [ -103.79246110793467, 20.052687026198452 ], [ -103.791954226080421, 20.051454791539093 ], [ -103.792462646224365, 20.049985544626306 ], [ -103.793857358424006, 20.048892781914848 ], [ -103.794009436816651, 20.042749951216074 ], [ -103.792159803058738, 20.040754814301035 ], [ -103.793951456757824, 20.036952738239304 ], [ -103.793564398976329, 20.033076686565586 ], [ -103.795882850943983, 20.029948398508441 ], [ -103.796714929416254, 20.026864891713458 ], [ -103.797362679667572, 20.026521747662532 ], [ -103.798107900890045, 20.026295314432115 ], [ -103.799725365923948, 20.027826664728241 ], [ -103.803900117477056, 20.029472217771438 ], [ -103.80592009427825, 20.029097347088207 ], [ -103.808321120184033, 20.027631765475252 ], [ -103.811773810683945, 20.027420064735132 ], [ -103.813553747542926, 20.025905061948148 ], [ -103.815543375434729, 20.027020678404455 ], [ -103.819738441254472, 20.027247476403343 ], [ -103.82038193875951, 20.028128179226226 ], [ -103.822025619747905, 20.026928411513378 ], [ -103.822972331622623, 20.026889533781105 ], [ -103.824104988891122, 20.027556631551285 ], [ -103.825545743938804, 20.026644607651463 ], [ -103.845815716633211, 20.02752787276869 ], [ -103.85853871476516, 20.019758723562028 ], [ -103.857052504950474, 20.017734267318946 ], [ -103.85741094866394, 20.017077004863491 ], [ -103.859228633576933, 20.016880913008976 ], [ -103.859883976071316, 20.016144239846302 ], [ -103.862000116653519, 20.015651875444142 ], [ -103.864360168815466, 20.015802556138372 ], [ -103.86585538762786, 20.013914724191579 ], [ -103.866564609224127, 20.013657240782244 ], [ -103.868299267311201, 20.010361408346398 ], [ -103.872567415789149, 20.008337608398179 ], [ -103.874395270247533, 20.006695766514607 ], [ -103.875118499762081, 20.005805861952243 ], [ -103.875512446991877, 20.004172966229468 ], [ -103.874922176619094, 19.999196832457024 ], [ -103.876390690183356, 19.996979123119491 ], [ -103.87699186804798, 19.99330719155169 ], [ -103.879862660035599, 19.993543640920823 ], [ -103.88085683713409, 19.994002780923257 ], [ -103.881513876209851, 19.99504635987385 ], [ -103.883982596350876, 19.996022115068619 ], [ -103.885389137246946, 19.995787041300563 ], [ -103.887140368764022, 19.996889528175888 ], [ -103.889358952243867, 19.997115778604499 ], [ -103.893789418915901, 20.001893065927245 ], [ -103.896023252000163, 20.000459828073328 ], [ -103.897134381144554, 20.001044337500211 ], [ -103.898179944388559, 19.999000323945062 ], [ -103.900268899670095, 19.998185371659829 ], [ -103.901226478277508, 19.993975518814871 ], [ -103.902180286459597, 19.991551842514159 ], [ -103.902986279990088, 19.990898004885477 ], [ -103.907328063340358, 19.991396556513912 ], [ -103.908846403921558, 19.990253199310821 ], [ -103.912898351712528, 19.989241097650265 ], [ -103.916603861924315, 19.986791679355861 ], [ -103.91768342723941, 19.985146052926385 ], [ -103.920055111101661, 19.9846808558387 ], [ -103.920265879189856, 19.983989129544632 ], [ -103.921188080490481, 19.983424392548834 ], [ -103.923161695030089, 19.985321493116714 ], [ -103.924622173756802, 19.985520567133015 ], [ -103.925145339161887, 19.987245644598133 ], [ -103.926858246440446, 19.98901001481055 ], [ -103.926785679971005, 19.990651992753218 ], [ -103.929664619608729, 19.986844045314808 ], [ -103.932385585150797, 19.985866546962932 ], [ -103.934200618049914, 19.981739208508927 ], [ -103.937190275806998, 19.980582535711221 ], [ -103.938785678173616, 19.980682444971389 ], [ -103.941750898048497, 19.978884024846813 ], [ -103.94292464220554, 19.979153054740536 ], [ -103.943683728227612, 19.978543161847757 ], [ -103.944510014570639, 19.976451838729716 ], [ -103.946178721188687, 19.978458613426142 ], [ -103.949691804402377, 19.979057727201862 ], [ -103.950937117829028, 19.980068042743881 ], [ -103.951653286233423, 19.981608319614644 ] ] ] } },
{ "type": "Feature", "properties": { "clave_geo": "14010", "clave_municipio": 10, "municipio": "Atemajac de Brizuela", "area_km2": 342.46426211149981 }, "geometry": { "type": "Polygon", "coordinates": [ [ [ -103.849490038123847, 20.181974293710791 ], [ -103.865024242057643, 20.237427942857988 ], [ -103.863624778501546, 20.239757611807086 ], [ -103.864047466198073, 20.241148995688832 ], [ -103.86331265947355, 20.242908256706428 ], [ -103.864858701248878, 20.2449388058678 ], [ -103.864968159391651, 20.247304386780662 ], [ -103.863760861618672, 20.25033909487265 ], [ -103.864490508888949, 20.251690431810065 ], [ -103.86425821032374, 20.252962903440217 ], [ -103.86124405162083, 20.25527610646375 ], [ -103.860093371957575, 20.258246610975487 ], [ -103.859108142294986, 20.259274370299085 ], [ -103.854923624877401, 20.256840666998016 ], [ -103.854370122898757, 20.257119485215462 ], [ -103.854985502559444, 20.259252202283676 ], [ -103.8547684649796, 20.260243348050647 ], [ -103.853120993333008, 20.261333564066796 ], [ -103.851777112215942, 20.263544594668378 ], [ -103.850051161191743, 20.26522520883579 ], [ -103.849287836957345, 20.267030126410592 ], [ -103.848409214782066, 20.267430775610588 ], [ -103.847449698439448, 20.270353541505425 ], [ -103.844847290112185, 20.272607026741642 ], [ -103.842644120034265, 20.273132543924309 ], [ -103.840212209368687, 20.276626324309021 ], [ -103.839030444443949, 20.275234951461613 ], [ -103.83511311250976, 20.272670469831702 ], [ -103.835491402784101, 20.267968240917426 ], [ -103.832768413469267, 20.266296168294705 ], [ -103.832377247990223, 20.265085665755521 ], [ -103.830655986005809, 20.264290219534686 ], [ -103.82802324317467, 20.26644401142126 ], [ -103.824363194643738, 20.265109537743385 ], [ -103.823465942059372, 20.264131808966837 ], [ -103.820960924026508, 20.263644926691033 ], [ -103.818332451818733, 20.261835440804269 ], [ -103.817401327673835, 20.260477197496758 ], [ -103.814916341682405, 20.260760822177325 ], [ -103.81282798894064, 20.264830419267451 ], [ -103.810323549571649, 20.265821566081648 ], [ -103.809119180097341, 20.264865549054459 ], [ -103.807958706074359, 20.262158729955829 ], [ -103.807398304813503, 20.261929608698136 ], [ -103.807470849563401, 20.260885839598462 ], [ -103.806164659563905, 20.259495715779835 ], [ -103.803366608538482, 20.258640212133979 ], [ -103.80300927102455, 20.256340998706861 ], [ -103.801623101667388, 20.255432432290768 ], [ -103.798953070811763, 20.254802051078222 ], [ -103.797840134461168, 20.253482126188594 ], [ -103.795306584221109, 20.252995166557827 ], [ -103.794833199352652, 20.253526742047573 ], [ -103.793680093869554, 20.253522220608769 ], [ -103.791185954334622, 20.252381783082516 ], [ -103.789792231487269, 20.250892808400568 ], [ -103.78936945199419, 20.253799760193701 ], [ -103.788655598164397, 20.255041505229368 ], [ -103.788729757463145, 20.257017607283231 ], [ -103.783567561138213, 20.2568515684336 ], [ -103.780953026695414, 20.255322419670208 ], [ -103.778438402962351, 20.255542313389537 ], [ -103.777222398095645, 20.255139381170398 ], [ -103.772722029623807, 20.256343672046608 ], [ -103.771697720580917, 20.257371311097195 ], [ -103.770914528044813, 20.256264992282144 ], [ -103.769185651235858, 20.257790532885121 ], [ -103.767755920083331, 20.257208638696167 ], [ -103.767469724768688, 20.256631572118369 ], [ -103.766317517591361, 20.257433945077299 ], [ -103.76552964756192, 20.25891222913879 ], [ -103.766829141124731, 20.259822132919407 ], [ -103.766384302912883, 20.261078786408991 ], [ -103.765428730012985, 20.261488914502433 ], [ -103.765867182165564, 20.263424527302465 ], [ -103.766893416185781, 20.264745703179692 ], [ -103.766589154834904, 20.264994096665198 ], [ -103.763942296918017, 20.265405730839628 ], [ -103.763250948358149, 20.266184597903475 ], [ -103.760490700621901, 20.26600801876814 ], [ -103.755626672626377, 20.266626552373218 ], [ -103.752986913595507, 20.267591107528983 ], [ -103.750466965195486, 20.266677005095193 ], [ -103.749181458555938, 20.265358702339675 ], [ -103.748076879861955, 20.265398618761104 ], [ -103.744416738279156, 20.26324604691548 ], [ -103.743148585336783, 20.26102969757865 ], [ -103.741364420254669, 20.259780536784689 ], [ -103.740080146237418, 20.256303810185873 ], [ -103.733482709118064, 20.25060249875612 ], [ -103.734679720280482, 20.247287869758388 ], [ -103.732853064917379, 20.244950884107912 ], [ -103.726265584823551, 20.242976376336717 ], [ -103.72466055889079, 20.239920372160753 ], [ -103.72251477663923, 20.239663589848952 ], [ -103.71804381904974, 20.237882373437792 ], [ -103.716044111423599, 20.2392924524205 ], [ -103.715460680261572, 20.241774744945367 ], [ -103.714174413215957, 20.243385322903457 ], [ -103.71194408656649, 20.243283508967728 ], [ -103.711096209928357, 20.243855308786575 ], [ -103.70909129420879, 20.244104587147753 ], [ -103.706087032611094, 20.246632199818364 ], [ -103.702292634391171, 20.248225480333648 ], [ -103.694879420350716, 20.248435875313007 ], [ -103.694058481605609, 20.247011326280905 ], [ -103.694473411225246, 20.246616891102235 ], [ -103.694410134977232, 20.243878923886868 ], [ -103.692647387632832, 20.242899089029116 ], [ -103.692693486435971, 20.240821465473253 ], [ -103.691671444923045, 20.239413477650597 ], [ -103.690712187415684, 20.236226129213119 ], [ -103.690902823889331, 20.235179533235975 ], [ -103.692100276443199, 20.23392361199366 ], [ -103.69100337473634, 20.23231630155388 ], [ -103.690928914619406, 20.229777010847332 ], [ -103.689273502697787, 20.225147953247543 ], [ -103.684301047867606, 20.221171656008558 ], [ -103.66036688154955, 20.195340440854686 ], [ -103.659139819063938, 20.193177504484765 ], [ -103.660810530768444, 20.190792476021979 ], [ -103.662663355399204, 20.189947010932368 ], [ -103.663681809615611, 20.189981199391724 ], [ -103.662921598357045, 20.18751394385734 ], [ -103.660736430701817, 20.18553381516567 ], [ -103.659642910066054, 20.18093921728962 ], [ -103.657782091050791, 20.177985241662437 ], [ -103.656921771769504, 20.17438558411709 ], [ -103.657123477506147, 20.172034789590679 ], [ -103.657633899656332, 20.171996554695127 ], [ -103.656036325971172, 20.16907876324662 ], [ -103.652782024018251, 20.168980650939943 ], [ -103.651783936799404, 20.168323693255957 ], [ -103.648539409818895, 20.169026763560563 ], [ -103.64657413547161, 20.170250154009356 ], [ -103.644877073386866, 20.170268543934103 ], [ -103.64331333025892, 20.169617655583828 ], [ -103.641304300053378, 20.16723524416718 ], [ -103.638594722262852, 20.165394623303214 ], [ -103.637427865480603, 20.162468832195852 ], [ -103.636285260674995, 20.161546211396583 ], [ -103.635975011325399, 20.159278997603252 ], [ -103.634687810092871, 20.158090801766605 ], [ -103.632145661590314, 20.158385269102755 ], [ -103.630582116847037, 20.157734256618266 ], [ -103.629572972661904, 20.156142349094679 ], [ -103.625579907823223, 20.153380357577511 ], [ -103.624458282395238, 20.15419372757589 ], [ -103.623039428242606, 20.153808215299186 ], [ -103.621928978585899, 20.155556376726757 ], [ -103.619518675841277, 20.155047855778712 ], [ -103.615434865512981, 20.15296769274741 ], [ -103.614777013338127, 20.153953482846042 ], [ -103.613105858237617, 20.154690189792795 ], [ -103.612649775265567, 20.155418390540195 ], [ -103.610763764542895, 20.155566138633564 ], [ -103.60984768106114, 20.15638104555536 ], [ -103.607727016735524, 20.157096079436172 ], [ -103.607445102211514, 20.157599780361799 ], [ -103.608050066707222, 20.158426702705103 ], [ -103.607490480072656, 20.158955311017912 ], [ -103.60285054812644, 20.157861511408456 ], [ -103.600592299264832, 20.157906814546596 ], [ -103.597034505866873, 20.158845180718973 ], [ -103.59651141763274, 20.158497701849626 ], [ -103.590220164408748, 20.159125010151733 ], [ -103.587248264507707, 20.160862893896944 ], [ -103.585411725041439, 20.160821039922286 ], [ -103.581436265093345, 20.159262230756962 ], [ -103.582225835968018, 20.157642399724025 ], [ -103.58164470242771, 20.155252635891834 ], [ -103.581939583808264, 20.153321648520503 ], [ -103.580832828549191, 20.150873441660135 ], [ -103.580958706321795, 20.148588751100515 ], [ -103.579200347662265, 20.148441571615923 ], [ -103.598145180718532, 20.130091904410929 ], [ -103.603316326770695, 20.118424314533613 ], [ -103.627443551200443, 20.115628707454714 ], [ -103.629891516213164, 20.111302108415295 ], [ -103.631312764909552, 20.110644583590926 ], [ -103.632111436620633, 20.108988413795231 ], [ -103.633528185100204, 20.108845806825617 ], [ -103.633934482814496, 20.108315912353913 ], [ -103.634402546175892, 20.106178335108719 ], [ -103.635958231101753, 20.104347310187254 ], [ -103.63721941212134, 20.100761586183769 ], [ -103.643944028951012, 20.104363700442029 ], [ -103.645904911015265, 20.104333588596859 ], [ -103.64815461266474, 20.10296854023748 ], [ -103.64993455119189, 20.102846649603517 ], [ -103.650763152923929, 20.103250513030648 ], [ -103.652626327091966, 20.102343216177804 ], [ -103.654447975169333, 20.102935336699343 ], [ -103.657832627775704, 20.103051463917296 ], [ -103.658821974783507, 20.099183109045409 ], [ -103.659554616452638, 20.098502039835644 ], [ -103.662159891005572, 20.099163273785461 ], [ -103.663226997365584, 20.098511828060996 ], [ -103.666554423062038, 20.098600245880085 ], [ -103.669928425701897, 20.097704168150543 ], [ -103.671357098728492, 20.096133854190331 ], [ -103.671214379976448, 20.09491309221826 ], [ -103.671590685942547, 20.094518397142334 ], [ -103.675328487420487, 20.094700081161214 ], [ -103.677574174455444, 20.093768274112186 ], [ -103.679934689810452, 20.093966639451423 ], [ -103.684536876359545, 20.092564472990997 ], [ -103.685539174088603, 20.091641359110483 ], [ -103.689089369798154, 20.091378647843293 ], [ -103.689717206441884, 20.091780839564915 ], [ -103.694881736428812, 20.090590368953187 ], [ -103.696247788396875, 20.090772124618145 ], [ -103.697979164296299, 20.089565205417944 ], [ -103.699503900895579, 20.090217915872294 ], [ -103.701351892603185, 20.08994240664342 ], [ -103.703047544841041, 20.089584445237008 ], [ -103.705498432632652, 20.088093619006514 ], [ -103.708461739152611, 20.088250845120655 ], [ -103.711391721601728, 20.086636949665511 ], [ -103.711811366683747, 20.086775534668437 ], [ -103.712171755357403, 20.088314087149872 ], [ -103.714209320689889, 20.089413120648736 ], [ -103.715117855131794, 20.089410700822977 ], [ -103.71669203256242, 20.088699362993587 ], [ -103.717791370984841, 20.087577993735643 ], [ -103.718556015382845, 20.087628719770773 ], [ -103.719810463068171, 20.086246451459164 ], [ -103.722866607643226, 20.08674743299083 ], [ -103.726044469718886, 20.085207357475202 ], [ -103.726531137373001, 20.08415378670372 ], [ -103.729221325287867, 20.083784667910145 ], [ -103.729167685294868, 20.084507073260429 ], [ -103.730936530487597, 20.084546900064765 ], [ -103.73152278918478, 20.085373288440913 ], [ -103.733201975152241, 20.084671586857276 ], [ -103.734490885338687, 20.084933806847577 ], [ -103.735045286179528, 20.086157491963505 ], [ -103.735675953007885, 20.092179256014894 ], [ -103.736436062509625, 20.09399167948936 ], [ -103.73934735291364, 20.097084366226756 ], [ -103.740565269360729, 20.099062672307351 ], [ -103.743462219669695, 20.10157696073157 ], [ -103.744666118998353, 20.104124341339904 ], [ -103.749531223286368, 20.110537547371337 ], [ -103.750366364262376, 20.112567288789499 ], [ -103.753999986410093, 20.113903062032051 ], [ -103.75347942230745, 20.114995733611387 ], [ -103.754387450068194, 20.115438619521431 ], [ -103.759924294616795, 20.116045532484428 ], [ -103.760928914907737, 20.116532597969581 ], [ -103.761603023795374, 20.119653084671626 ], [ -103.764091401262732, 20.120558151398381 ], [ -103.765328927311131, 20.120498428981854 ], [ -103.769086363459749, 20.117425224732433 ], [ -103.771931113939686, 20.119205877756425 ], [ -103.774429403080006, 20.121436830012577 ], [ -103.776829521591864, 20.125230119732368 ], [ -103.777927618358049, 20.125481680442043 ], [ -103.778790471474636, 20.126463438428857 ], [ -103.780038464335334, 20.129589149721902 ], [ -103.778449218993458, 20.130987598299924 ], [ -103.779513146940175, 20.13318143438406 ], [ -103.781002725251938, 20.133535074176329 ], [ -103.782339517001361, 20.135089298730751 ], [ -103.783579081718415, 20.135612854557206 ], [ -103.784406282848295, 20.135031289073122 ], [ -103.78513970503262, 20.135442921779404 ], [ -103.788562984391376, 20.134391326124039 ], [ -103.790673331579939, 20.1348846772912 ], [ -103.792892534412843, 20.133662097524976 ], [ -103.794114798157636, 20.133950551453577 ], [ -103.795376011176543, 20.132902080748593 ], [ -103.800712824687622, 20.134302771403558 ], [ -103.803921833538752, 20.133737305067363 ], [ -103.806017449235057, 20.134917037454304 ], [ -103.807568007089486, 20.134810081638182 ], [ -103.808246540659596, 20.136160894307874 ], [ -103.809391440518581, 20.136566176585362 ], [ -103.812926397821286, 20.135912398547532 ], [ -103.814300892624686, 20.136319196040329 ], [ -103.817872566458107, 20.138412226214992 ], [ -103.822875934001388, 20.139683532390418 ], [ -103.823525651783825, 20.141070239888311 ], [ -103.825599756077182, 20.142601973593766 ], [ -103.826055505077818, 20.146905711365719 ], [ -103.82803194589188, 20.149999838371894 ], [ -103.830142112321099, 20.150565009665215 ], [ -103.830988386130826, 20.151266331651509 ], [ -103.83108582127096, 20.15231504883651 ], [ -103.832061208632766, 20.153667749707306 ], [ -103.83330177334652, 20.154100623725345 ], [ -103.835343320049716, 20.153608174439043 ], [ -103.836115307119968, 20.154010823545544 ], [ -103.838936909168126, 20.158004898722048 ], [ -103.840630732986938, 20.157961851387608 ], [ -103.841658875289269, 20.158664322882419 ], [ -103.843150765366119, 20.156162371824294 ], [ -103.846913885232084, 20.154373459104541 ], [ -103.846768640072696, 20.156362981218905 ], [ -103.845246218555133, 20.158086261942898 ], [ -103.844066005903969, 20.161673376834869 ], [ -103.843840554988446, 20.162746136517889 ], [ -103.844652265793712, 20.164531742278545 ], [ -103.844523225396472, 20.16633784389931 ], [ -103.842984435856678, 20.17251372679792 ], [ -103.842272346348253, 20.173111790953907 ], [ -103.842878371279014, 20.173893360984497 ], [ -103.846544996945156, 20.175172765298285 ], [ -103.84762512450132, 20.176211528118603 ], [ -103.84799572875599, 20.177331464282069 ], [ -103.847834127987397, 20.179564187958789 ], [ -103.849490038123847, 20.181974293710791 ] ] ] } },
{ "type": "Feature", "properties": { "clave_geo": "14086", "clave_municipio": 86, "municipio": "Tapalpa", "area_km2": 581.76481089293316 }, "geometry": { "type": "Polygon", "coordinates": [ [ [ -103.734490885338687, 20.084933806847577 ], [ -103.733201975152241, 20.084671586857276 ], [ -103.73152278918478, 20.085373288440913 ], [ -103.730936530487597, 20.084546900064765 ], [ -103.729167685294868, 20.084507073260429 ], [ -103.729221325287867, 20.083784667910145 ], [ -103.728063757833596, 20.083839577542747 ], [ -103.726531137373001, 20.08415378670372 ], [ -103.726044469718886, 20.085207357475202 ], [ -103.722866607643226, 20.08674743299083 ], [ -103.719810463068171, 20.086246451459164 ], [ -103.718556015382845, 20.087628719770773 ], [ -103.717791370984841, 20.087577993735643 ], [ -103.71669203256242, 20.088699362993587 ], [ -103.715117855131794, 20.089410700822977 ], [ -103.714209320689889, 20.089413120648736 ], [ -103.712171755357403, 20.088314087149872 ], [ -103.711811366683747, 20.086775534668437 ], [ -103.711391721601728, 20.086636949665511 ], [ -103.708461739152611, 20.088250845120655 ], [ -103.705498432632652, 20.088093619006514 ], [ -103.703047544841041, 20.089584445237008 ], [ -103.701351892603185, 20.08994240664342 ], [ -103.699503900895579, 20.090217915872294 ], [ -103.697979164296299, 20.089565205417944 ], [ -103.696247788396875, 20.090772124618145 ], [ -103.694881736428812, 20.090590368953187 ], [ -103.689717206441884, 20.091780839564915 ], [ -103.689089369798154, 20.091378647843293 ], [ -103.685539174088603, 20.091641359110483 ], [ -103.684536876359545, 20.092564472990997 ], [ -103.679934689810452, 20.093966639451423 ], [ -103.677574174455444, 20.093768274112186 ], [ -103.675328487420487, 20.094700081161214 ], [ -103.671590685942547, 20.094518397142334 ], [ -103.671214379976448, 20.09491309221826 ], [ -103.671357098728492, 20.096133854190331 ], [ -103.669928425701897, 20.097704168150543 ], [ -103.666554423062038, 20.098600245880085 ], [ -103.663226997365584, 20.098511828060996 ], [ -103.662159891005572, 20.099163273785461 ], [ -103.659554616452638, 20.098502039835644 ], [ -103.658821974783507, 20.099183109045409 ], [ -103.657832627775704, 20.103051463917296 ], [ -103.654447975169333, 20.102935336699343 ], [ -103.652626327091966, 20.102343216177804 ], [ -103.650763152923929, 20.103250513030648 ], [ -103.64993455119189, 20.102846649603517 ], [ -103.64815461266474, 20.10296854023748 ], [ -103.645904911015265, 20.104333588596859 ], [ -103.643944028951012, 20.104363700442029 ], [ -103.63721941212134, 20.100761586183769 ], [ -103.635958231101753, 20.104347310187254 ], [ -103.634402546175892, 20.106178335108719 ], [ -103.633934482814496, 20.108315912353913 ], [ -103.633528185100204, 20.108845806825617 ], [ -103.632111436620633, 20.108988413795231 ], [ -103.631312764909552, 20.110644583590926 ], [ -103.629891516213164, 20.111302108415295 ], [ -103.627443551200443, 20.115628707454714 ], [ -103.603316326770695, 20.118424314533613 ], [ -103.602803628645646, 20.115796577842641 ], [ -103.604064756515129, 20.114876011415564 ], [ -103.604175488721523, 20.114253506731224 ], [ -103.606322704046875, 20.112635241599744 ], [ -103.609029640600241, 20.112611439742921 ], [ -103.611352280046546, 20.110615042271647 ], [ -103.611328693360662, 20.107868357475851 ], [ -103.613189882920437, 20.106130298412307 ], [ -103.614141646673929, 20.104484455691942 ], [ -103.614066393104537, 20.103255165763819 ], [ -103.615673184716869, 20.101072383531598 ], [ -103.615790707800983, 20.095318290693719 ], [ -103.616782966548186, 20.094494890276927 ], [ -103.618601221617183, 20.094355543388247 ], [ -103.619931476312317, 20.093155316941019 ], [ -103.62103093859028, 20.093191013971882 ], [ -103.623285246988317, 20.091555297503763 ], [ -103.622409196303721, 20.087591298070926 ], [ -103.620227672002386, 20.085541480273967 ], [ -103.619320656103554, 20.082101247656922 ], [ -103.618646271997179, 20.081581002113829 ], [ -103.618541593862503, 20.078143108070329 ], [ -103.632717742869588, 20.060116712731549 ], [ -103.63580430200939, 20.058279147837638 ], [ -103.639237510575768, 20.057344473887429 ], [ -103.640218110683918, 20.055919434132857 ], [ -103.642417069515844, 20.05606792376658 ], [ -103.645693743728785, 20.053312344375509 ], [ -103.647105256948208, 20.053405834072276 ], [ -103.647326573204793, 20.051880188537179 ], [ -103.648701683972448, 20.051348440983883 ], [ -103.650716681217759, 20.052940448321216 ], [ -103.653935492646355, 20.054111304280386 ], [ -103.658274438831697, 20.053510870438298 ], [ -103.660233089371914, 20.055973799890257 ], [ -103.662228004332135, 20.054347111229262 ], [ -103.662200256456501, 20.053649260262045 ], [ -103.660997373041283, 20.052574398163596 ], [ -103.660718554488284, 20.049394960670277 ], [ -103.661160603228765, 20.047105264293741 ], [ -103.662735194124608, 20.045637318368264 ], [ -103.663621720444468, 20.04204619155438 ], [ -103.663232737682648, 20.040055751232796 ], [ -103.661309891659556, 20.038934395305876 ], [ -103.662244420806545, 20.03691132901767 ], [ -103.66294063012009, 20.036577295921557 ], [ -103.663179811958997, 20.034960785338633 ], [ -103.660281609485281, 20.033306103862564 ], [ -103.659522116721178, 20.030821053521471 ], [ -103.663106287122034, 20.028968462403515 ], [ -103.663537261361697, 20.024221845874788 ], [ -103.667073925639627, 20.020084889474354 ], [ -103.668678237281654, 20.01716592516626 ], [ -103.671822278363649, 20.013885460914445 ], [ -103.672747282651244, 20.013449134436719 ], [ -103.673894015882539, 20.011550633531701 ], [ -103.67292710744772, 20.009367185023979 ], [ -103.673737003560689, 20.006602016804358 ], [ -103.672848803216951, 20.003021464942087 ], [ -103.674045520737877, 20.00129469304116 ], [ -103.673945971557885, 19.999446225777774 ], [ -103.677120038273387, 19.994760068293939 ], [ -103.67428621513227, 19.993603666984075 ], [ -103.673439338009672, 19.992588504339647 ], [ -103.673183923308201, 19.990542310248191 ], [ -103.67120157486282, 19.988433557721521 ], [ -103.67024200626598, 19.986050601136476 ], [ -103.671958593922128, 19.980610012736712 ], [ -103.673566352408443, 19.980347491766405 ], [ -103.673541961350608, 19.978371303678355 ], [ -103.672520648027074, 19.975644547046503 ], [ -103.673205299319349, 19.973624282780989 ], [ -103.672288871909615, 19.972401377795556 ], [ -103.672087235559886, 19.970046376821823 ], [ -103.672929589247332, 19.967598273530225 ], [ -103.673046266594156, 19.963843580200908 ], [ -103.674180341499181, 19.962507404141817 ], [ -103.674303062021224, 19.960021921295059 ], [ -103.671672421375973, 19.958953935969078 ], [ -103.671329745765746, 19.958377479897038 ], [ -103.672832127148823, 19.958143329016394 ], [ -103.673033235572746, 19.955792984867699 ], [ -103.672272995202619, 19.951676296650984 ], [ -103.672540838260176, 19.945408703135559 ], [ -103.674242275238754, 19.941119840701202 ], [ -103.676662350454222, 19.938364244266417 ], [ -103.678012756195415, 19.935937763792186 ], [ -103.674398117506556, 19.932777446974026 ], [ -103.675126726994421, 19.932007863487492 ], [ -103.676699599246234, 19.932072073145179 ], [ -103.676994536472009, 19.931116891741368 ], [ -103.678879759886129, 19.930860317416023 ], [ -103.679149450544955, 19.929415854279341 ], [ -103.681673375259564, 19.927329929769925 ], [ -103.685239169722209, 19.925785408031246 ], [ -103.685758529491551, 19.924383493553545 ], [ -103.685788754085323, 19.923730416736628 ], [ -103.683023315447343, 19.922564446970693 ], [ -103.680257105062196, 19.919784723039928 ], [ -103.68015445952912, 19.918462254160598 ], [ -103.68289768412086, 19.916301372563268 ], [ -103.68249281415801, 19.913024060967249 ], [ -103.680859179011961, 19.912679550643563 ], [ -103.678145726929586, 19.910270927072336 ], [ -103.676273905716556, 19.910037793461694 ], [ -103.678177881830777, 19.908221721131241 ], [ -103.67724728194672, 19.905820545847121 ], [ -103.67572757235537, 19.904604419150719 ], [ -103.672132480012095, 19.902957900407063 ], [ -103.676376595513574, 19.898958415703106 ], [ -103.676575865739963, 19.898022454135791 ], [ -103.678704253563637, 19.89576876428184 ], [ -103.677506784191678, 19.893479362327675 ], [ -103.676803838841948, 19.893206106455743 ], [ -103.676033118500271, 19.890549356699569 ], [ -103.673452434153603, 19.887985125339046 ], [ -103.672564318750602, 19.883570964582429 ], [ -103.673184041072673, 19.882539727316871 ], [ -103.672167786674976, 19.879387097865983 ], [ -103.672899891433076, 19.878146121205518 ], [ -103.674295658361231, 19.877885944528604 ], [ -103.678026515055265, 19.874291048361478 ], [ -103.677321483471388, 19.871515778399274 ], [ -103.677734214793773, 19.870024490696732 ], [ -103.680047979880683, 19.868077008533735 ], [ -103.686043610000766, 19.867122031433308 ], [ -103.68681305011728, 19.86658768102944 ], [ -103.688684586633158, 19.862995105606249 ], [ -103.692103618872196, 19.859811318318791 ], [ -103.693349291716729, 19.857522023966393 ], [ -103.694137575917381, 19.854666727476207 ], [ -103.693814415664292, 19.85103518724139 ], [ -103.689637987142675, 19.847229103268514 ], [ -103.68947467492373, 19.845653586687774 ], [ -103.690514564507893, 19.846077118061373 ], [ -103.692304492167665, 19.845957425035515 ], [ -103.696030922629234, 19.843649482117428 ], [ -103.699927619680494, 19.842708375449341 ], [ -103.702535935833552, 19.843685326057962 ], [ -103.707557117992792, 19.843801072647725 ], [ -103.712789158356813, 19.838611170725603 ], [ -103.714653374038349, 19.837556668464124 ], [ -103.71959266394768, 19.837274075382268 ], [ -103.720635800854822, 19.837951182898049 ], [ -103.721768091618372, 19.837349091215007 ], [ -103.722518901611537, 19.836125836576095 ], [ -103.720916279767494, 19.834385418817302 ], [ -103.720577392767581, 19.831832920072834 ], [ -103.723620805569823, 19.828607442384214 ], [ -103.726680549423207, 19.828182813329665 ], [ -103.734972818363488, 19.829128422338655 ], [ -103.736351108770336, 19.828695464451496 ], [ -103.736749110990417, 19.827867047430868 ], [ -103.737890707447903, 19.827179416718341 ], [ -103.739994690541209, 19.826733489382416 ], [ -103.743639455619331, 19.827039273995254 ], [ -103.744700565958098, 19.828085786435032 ], [ -103.746923220604543, 19.827116570797074 ], [ -103.750875147637359, 19.827216555359893 ], [ -103.752621533002355, 19.826099369119593 ], [ -103.758613857207109, 19.829014347591706 ], [ -103.761894438632055, 19.828278178396054 ], [ -103.765442060950093, 19.825104280383488 ], [ -103.768759110818138, 19.823338213164021 ], [ -103.771217741836949, 19.82269558107421 ], [ -103.772199546015941, 19.82290111245117 ], [ -103.774064533970943, 19.821233371062036 ], [ -103.776826884519224, 19.8208186262836 ], [ -103.777567031191879, 19.820164120819214 ], [ -103.801057356663833, 19.81708876976727 ], [ -103.802512449822174, 19.817839432683083 ], [ -103.803879658381092, 19.817577536753703 ], [ -103.807876297400128, 19.818065069286281 ], [ -103.810345812906775, 19.817214146036616 ], [ -103.811917932751342, 19.817640240763286 ], [ -103.814913094269158, 19.816711431445718 ], [ -103.815856631209229, 19.815642481249096 ], [ -103.819039737793972, 19.814607830023242 ], [ -103.818903816152556, 19.816710767479666 ], [ -103.819980327841762, 19.817025088274672 ], [ -103.820174010214785, 19.817947977767592 ], [ -103.821087371366573, 19.818378674208336 ], [ -103.825332522286089, 19.818840353527882 ], [ -103.827342332456681, 19.818175909993357 ], [ -103.828459163320034, 19.816900213633783 ], [ -103.829766407676004, 19.816999140141967 ], [ -103.831145566273946, 19.816402800868012 ], [ -103.831602489315458, 19.816586499688842 ], [ -103.831765948638179, 19.817735067244371 ], [ -103.834408502333346, 19.820634637475774 ], [ -103.836417909051846, 19.82002430109624 ], [ -103.840007285821756, 19.821402974057847 ], [ -103.840677414529665, 19.821154334960003 ], [ -103.842450869122956, 19.824120431374823 ], [ -103.843679456034309, 19.824544024585212 ], [ -103.845578293514279, 19.827348267250439 ], [ -103.847009654119645, 19.831432504806727 ], [ -103.846101993911205, 19.832836166257824 ], [ -103.846438496684542, 19.835160449465921 ], [ -103.845197608811446, 19.836426418210415 ], [ -103.84443482798018, 19.838915257667463 ], [ -103.845110850313247, 19.839181662942885 ], [ -103.866108742906718, 19.875146050509365 ], [ -103.865442850238011, 19.879050084892953 ], [ -103.867671418921148, 19.883979549451809 ], [ -103.868025559223355, 19.885219656648388 ], [ -103.867723636055899, 19.886039961788939 ], [ -103.871238439429405, 19.888754843150124 ], [ -103.873273675542194, 19.888650275484576 ], [ -103.874498183398075, 19.889733240255332 ], [ -103.874594884811458, 19.890917495734985 ], [ -103.876024907749894, 19.891306020238563 ], [ -103.876801244310116, 19.890931431566724 ], [ -103.877719703324189, 19.892075692325548 ], [ -103.879742252815078, 19.892422745398974 ], [ -103.882111874790141, 19.89367550264139 ], [ -103.887105352390577, 19.892622538709531 ], [ -103.887926691102393, 19.891272350082726 ], [ -103.889490853458142, 19.891607392925916 ], [ -103.890554649211268, 19.891099003822262 ], [ -103.892439795366499, 19.891978150794518 ], [ -103.89487811389462, 19.891604779898305 ], [ -103.895858123536243, 19.890779595626803 ], [ -103.897131754938144, 19.891691041633866 ], [ -103.89858232697533, 19.891880733551346 ], [ -103.900333428291063, 19.891430749464512 ], [ -103.901429975754255, 19.891708585860137 ], [ -103.903204402156831, 19.890644301811232 ], [ -103.905051662582252, 19.891486942316625 ], [ -103.903685118795977, 19.891577921608164 ], [ -103.903266441981586, 19.892731888638785 ], [ -103.903248926174413, 19.893888326759939 ], [ -103.903959513686416, 19.89473300714706 ], [ -103.903563823104747, 19.896709347546498 ], [ -103.904229936534321, 19.89846634004223 ], [ -103.903878790788795, 19.899521332298523 ], [ -103.90094086393114, 19.901680766556385 ], [ -103.900028484772719, 19.903771364156121 ], [ -103.896716290372439, 19.907536724400803 ], [ -103.893862593596864, 19.912660188473996 ], [ -103.894543921723098, 19.913595078939515 ], [ -103.895385694122297, 19.913437670971522 ], [ -103.895812808784271, 19.913837884513242 ], [ -103.895571435306877, 19.915580232715374 ], [ -103.896670508704489, 19.918270592419873 ], [ -103.898923885621485, 19.919829628565889 ], [ -103.902485155268621, 19.920149819580935 ], [ -103.904449841589511, 19.922023248455503 ], [ -103.90743465194106, 19.928384534939998 ], [ -103.907488185992321, 19.928936029003047 ], [ -103.904625338315441, 19.932127521872236 ], [ -103.90379023031953, 19.9361452275106 ], [ -103.903216888026151, 19.936959309772195 ], [ -103.903710330501667, 19.938648483530013 ], [ -103.90264050302909, 19.940973779612083 ], [ -103.902113840390612, 19.944434600746987 ], [ -103.902491648698216, 19.949497876416288 ], [ -103.903508397136875, 19.950899452139399 ], [ -103.905946568097391, 19.951793587748799 ], [ -103.906912354937376, 19.953658164966093 ], [ -103.907410677839792, 19.957731731796272 ], [ -103.908299856053901, 19.958917300427714 ], [ -103.906965531530133, 19.960167104677648 ], [ -103.906722122609764, 19.961267192148796 ], [ -103.905438213891287, 19.960648684147657 ], [ -103.904118309414628, 19.961562828894756 ], [ -103.903159157051419, 19.961538602453775 ], [ -103.901712540278282, 19.964358252111566 ], [ -103.901828950267657, 19.966505523701802 ], [ -103.901093993597954, 19.970848478995876 ], [ -103.901207476097326, 19.972787272895655 ], [ -103.902729065359296, 19.975986784101298 ], [ -103.903209568789521, 19.980160406329929 ], [ -103.904158246712697, 19.980112233979913 ], [ -103.904962617700065, 19.982078634365021 ], [ -103.904912113427727, 19.984626964790678 ], [ -103.905941063278775, 19.985511628015708 ], [ -103.905917874375291, 19.986590839844435 ], [ -103.904282502055636, 19.988959621084536 ], [ -103.903556840311495, 19.989186327055254 ], [ -103.902986279990088, 19.990898004885477 ], [ -103.902180286459597, 19.991551842514159 ], [ -103.900268899670095, 19.998185371659829 ], [ -103.898179944388559, 19.999000323945062 ], [ -103.897134381144554, 20.001044337500211 ], [ -103.896023252000163, 20.000459828073328 ], [ -103.894401740376992, 20.001785687270324 ], [ -103.893789418915901, 20.001893065927245 ], [ -103.892323341168506, 20.000614825601414 ], [ -103.889358952243867, 19.997115778604499 ], [ -103.887140368764022, 19.996889528175888 ], [ -103.885389137246946, 19.995787041300563 ], [ -103.883982596350876, 19.996022115068619 ], [ -103.881513876209851, 19.99504635987385 ], [ -103.88085683713409, 19.994002780923257 ], [ -103.879862660035599, 19.993543640920823 ], [ -103.87699186804798, 19.99330719155169 ], [ -103.876390690183356, 19.996979123119491 ], [ -103.874922176619094, 19.999196832457024 ], [ -103.875512446991877, 20.004172966229468 ], [ -103.875118499762081, 20.005805861952243 ], [ -103.874395270247533, 20.006695766514607 ], [ -103.872567415789149, 20.008337608398179 ], [ -103.868299267311201, 20.010361408346398 ], [ -103.866564609224127, 20.013657240782244 ], [ -103.86585538762786, 20.013914724191579 ], [ -103.864360168815466, 20.015802556138372 ], [ -103.862000116653519, 20.015651875444142 ], [ -103.859883976071316, 20.016144239846302 ], [ -103.859228633576933, 20.016880913008976 ], [ -103.85741094866394, 20.017077004863491 ], [ -103.857052504950474, 20.017734267318946 ], [ -103.85853871476516, 20.019758723562028 ], [ -103.845815716633211, 20.02752787276869 ], [ -103.825545743938804, 20.026644607651463 ], [ -103.824104988891122, 20.027556631551285 ], [ -103.822972331622623, 20.026889533781105 ], [ -103.822025619747905, 20.026928411513378 ], [ -103.82038193875951, 20.028128179226226 ], [ -103.819738441254472, 20.027247476403343 ], [ -103.815543375434729, 20.027020678404455 ], [ -103.813553747542926, 20.025905061948148 ], [ -103.811773810683945, 20.027420064735132 ], [ -103.808321120184033, 20.027631765475252 ], [ -103.80592009427825, 20.029097347088207 ], [ -103.803900117477056, 20.029472217771438 ], [ -103.799725365923948, 20.027826664728241 ], [ -103.798107900890045, 20.026295314432115 ], [ -103.796714929416254, 20.026864891713458 ], [ -103.795882850943983, 20.029948398508441 ], [ -103.793564398976329, 20.033076686565586 ], [ -103.793951456757824, 20.036952738239304 ], [ -103.792159803058738, 20.040754814301035 ], [ -103.794009436816651, 20.042749951216074 ], [ -103.793857358424006, 20.048892781914848 ], [ -103.792462646224365, 20.049985544626306 ], [ -103.791954226080421, 20.051454791539093 ], [ -103.79246110793467, 20.052687026198452 ], [ -103.78947855569993, 20.057599784123337 ], [ -103.789428944548661, 20.060328037132368 ], [ -103.789873058345904, 20.061017744039155 ], [ -103.788338565417803, 20.065353098962731 ], [ -103.789036195118015, 20.067896734806713 ], [ -103.787518917538165, 20.068735625450522 ], [ -103.786536558743435, 20.068403619379822 ], [ -103.785060364234951, 20.068872332964748 ], [ -103.784554938213617, 20.069934993018109 ], [ -103.784949644517553, 20.0708321781416 ], [ -103.786109343451656, 20.070487782925952 ], [ -103.786807052963781, 20.071775553406468 ], [ -103.785728047081449, 20.072816206509032 ], [ -103.787199179369239, 20.074253851095737 ], [ -103.786836624291453, 20.075389778247342 ], [ -103.786076242118625, 20.074788240907857 ], [ -103.784740354066741, 20.075655454999545 ], [ -103.783887336992493, 20.073426962898974 ], [ -103.782831469655562, 20.073943723510578 ], [ -103.782448353682469, 20.072784597758581 ], [ -103.78019410224276, 20.072461855435073 ], [ -103.779343035997357, 20.071227211917066 ], [ -103.778056102368538, 20.070712353509968 ], [ -103.777300819828568, 20.069460293450337 ], [ -103.776553281599774, 20.07090975866878 ], [ -103.774937680378997, 20.070853388120589 ], [ -103.774355966316534, 20.071879346260751 ], [ -103.773762566588715, 20.071947508605039 ], [ -103.773200799040723, 20.070407654769664 ], [ -103.773592745688504, 20.067961884308669 ], [ -103.77302480826819, 20.067217069377293 ], [ -103.770306440153618, 20.066339845617577 ], [ -103.769655007106238, 20.065269178991496 ], [ -103.766802862089207, 20.065610698535515 ], [ -103.766098372400521, 20.066437001468213 ], [ -103.765207381398383, 20.066656652651481 ], [ -103.7645203648662, 20.066471150371857 ], [ -103.764052692277005, 20.065139734432812 ], [ -103.761136450244024, 20.065119313867498 ], [ -103.761042625427208, 20.063673056652149 ], [ -103.760330989382936, 20.062972371480651 ], [ -103.758569078953485, 20.063294298371261 ], [ -103.757573463153662, 20.062230208057581 ], [ -103.75572579065711, 20.062515363863564 ], [ -103.753506430786672, 20.065065658082762 ], [ -103.752629280976251, 20.064743244600979 ], [ -103.751560853737942, 20.06321782444963 ], [ -103.748249996727608, 20.063528698348495 ], [ -103.746880435171775, 20.063808111027267 ], [ -103.746196197676582, 20.064480879634665 ], [ -103.744832092462786, 20.067678603984522 ], [ -103.742840773243742, 20.067980670195297 ], [ -103.744217555924578, 20.070402791576875 ], [ -103.742375010433207, 20.071229934772692 ], [ -103.742339192963684, 20.072124138842234 ], [ -103.741190738561784, 20.073444094725915 ], [ -103.741192583895767, 20.074410845876887 ], [ -103.740626986841065, 20.074587513041958 ], [ -103.737899937503414, 20.073610347391014 ], [ -103.737469204653863, 20.072468868816102 ], [ -103.737071093474981, 20.073224956835222 ], [ -103.737880703031664, 20.0760134999868 ], [ -103.737720637306282, 20.078090388295056 ], [ -103.735661225359024, 20.079710977310146 ], [ -103.736934971503516, 20.081861366853165 ], [ -103.736553421601599, 20.082933792147873 ], [ -103.734490885338687, 20.084933806847577 ] ] ] } },
{ "type": "Feature", "properties": { "clave_geo": "14113", "clave_municipio": 113, "municipio": "San Gabriel", "area_km2": 723.47299163054777 }, "geometry": { "type": "Polygon", "coordinates": [ [ [ -103.845110850313247, 19.839181662942885 ], [ -103.844614216355694, 19.839196517882627 ], [ -103.844411281943508, 19.838210341747995 ], [ -103.845197608811446, 19.836426418210415 ], [ -103.846438496684542, 19.835160449465921 ], [ -103.846101993911205, 19.832836166257824 ], [ -103.847009654119645, 19.831432504806727 ], [ -103.845578293514279, 19.827348267250439 ], [ -103.843679456034309, 19.824544024585212 ], [ -103.842450869122956, 19.824120431374823 ], [ -103.840677414529665, 19.821154334960003 ], [ -103.840007285821756, 19.821402974057847 ], [ -103.836417909051846, 19.82002430109624 ], [ -103.834408502333346, 19.820634637475774 ], [ -103.831765948638179, 19.817735067244371 ], [ -103.831602489315458, 19.816586499688842 ], [ -103.831145566273946, 19.816402800868012 ], [ -103.829766407676004, 19.816999140141967 ], [ -103.828459163320034, 19.816900213633783 ], [ -103.827342332456681, 19.818175909993357 ], [ -103.825332522286089, 19.818840353527882 ], [ -103.821087371366573, 19.818378674208336 ], [ -103.820174010214785, 19.817947977767592 ], [ -103.819980327841762, 19.817025088274672 ], [ -103.818903816152556, 19.816710767479666 ], [ -103.819039737793972, 19.814607830023242 ], [ -103.815856631209229, 19.815642481249096 ], [ -103.814913094269158, 19.816711431445718 ], [ -103.811917932751342, 19.817640240763286 ], [ -103.810345812906775, 19.817214146036616 ], [ -103.807876297400128, 19.818065069286281 ], [ -103.803879658381092, 19.817577536753703 ], [ -103.802512449822174, 19.817839432683083 ], [ -103.801057356663833, 19.81708876976727 ], [ -103.777567031191879, 19.820164120819214 ], [ -103.776826884519224, 19.8208186262836 ], [ -103.774064533970943, 19.821233371062036 ], [ -103.772199546015941, 19.82290111245117 ], [ -103.771217741836949, 19.82269558107421 ], [ -103.768759110818138, 19.823338213164021 ], [ -103.765442060950093, 19.825104280383488 ], [ -103.761894438632055, 19.828278178396054 ], [ -103.758613857207109, 19.829014347591706 ], [ -103.752621533002355, 19.826099369119593 ], [ -103.750875147637359, 19.827216555359893 ], [ -103.746923220604543, 19.827116570797074 ], [ -103.744700565958098, 19.828085786435032 ], [ -103.743639455619331, 19.827039273995254 ], [ -103.739994690541209, 19.826733489382416 ], [ -103.737890707447903, 19.827179416718341 ], [ -103.736749110990417, 19.827867047430868 ], [ -103.736351108770336, 19.828695464451496 ], [ -103.734972818363488, 19.829128422338655 ], [ -103.726680549423207, 19.828182813329665 ], [ -103.723620805569823, 19.828607442384214 ], [ -103.720577392767581, 19.831832920072834 ], [ -103.720916279767494, 19.834385418817302 ], [ -103.722518901611537, 19.836125836576095 ], [ -103.721768091618372, 19.837349091215007 ], [ -103.720635800854822, 19.837951182898049 ], [ -103.71959266394768, 19.837274075382268 ], [ -103.714653374038349, 19.837556668464124 ], [ -103.712789158356813, 19.838611170725603 ], [ -103.707557117992792, 19.843801072647725 ], [ -103.702535935833552, 19.843685326057962 ], [ -103.699927619680494, 19.842708375449341 ], [ -103.696030922629234, 19.843649482117428 ], [ -103.692304492167665, 19.845957425035515 ], [ -103.690514564507893, 19.846077118061373 ], [ -103.686483618487728, 19.844707865047312 ], [ -103.686111326045534, 19.841729581399868 ], [ -103.68635677331396, 19.838354634587919 ], [ -103.684443134064139, 19.836988960480923 ], [ -103.687318391751248, 19.833258433059836 ], [ -103.68861802371876, 19.823771038500379 ], [ -103.687833391972674, 19.82306364924824 ], [ -103.686005567480592, 19.823192776659749 ], [ -103.683343719628951, 19.820947072142221 ], [ -103.683055342254548, 19.819318590970934 ], [ -103.680601495114445, 19.814523308730902 ], [ -103.680334823979919, 19.812323507498458 ], [ -103.678275022491121, 19.809654948015833 ], [ -103.666930550235762, 19.809210338049255 ], [ -103.650857747286722, 19.80426084123777 ], [ -103.639255607331449, 19.796427646652443 ], [ -103.637110412272904, 19.793279753976023 ], [ -103.632615159667807, 19.79198727843702 ], [ -103.631654726923074, 19.790157509056822 ], [ -103.630288065122812, 19.789583022783166 ], [ -103.626255210346443, 19.786263407715097 ], [ -103.627073648404007, 19.7834446091458 ], [ -103.625135695289444, 19.782332344188188 ], [ -103.622354964955619, 19.782806310558687 ], [ -103.620629363015581, 19.781030005401181 ], [ -103.614489871672774, 19.780071271005252 ], [ -103.612101365738937, 19.782127156537502 ], [ -103.609884280254249, 19.782495184783716 ], [ -103.607169463973506, 19.782070784418565 ], [ -103.606102536415733, 19.782535325160673 ], [ -103.603189021909273, 19.78068983313263 ], [ -103.60151476349985, 19.780807251429376 ], [ -103.600588166105823, 19.781805074669681 ], [ -103.597939290140602, 19.77965755975692 ], [ -103.595703258585488, 19.779227905111856 ], [ -103.59428611170047, 19.777593092478241 ], [ -103.59287431189972, 19.777227236553845 ], [ -103.592337243270435, 19.775519702003422 ], [ -103.591090889964406, 19.774562903160614 ], [ -103.586390856354001, 19.776298180695452 ], [ -103.585594352244541, 19.777784024973538 ], [ -103.577646085506672, 19.78016031753857 ], [ -103.575189891993148, 19.783032124757931 ], [ -103.57418994979659, 19.785154548595155 ], [ -103.573079022089942, 19.785138894539628 ], [ -103.571392094137451, 19.784168369927954 ], [ -103.567066814998256, 19.783578657216701 ], [ -103.565652120641545, 19.785451507686972 ], [ -103.562582347923851, 19.786625330379859 ], [ -103.557615749739327, 19.786894023930579 ], [ -103.556606996555402, 19.787439198810731 ], [ -103.555695161028169, 19.78641520962853 ], [ -103.551441294292232, 19.785371090867812 ], [ -103.550486247155106, 19.785589351817556 ], [ -103.550227688272869, 19.786425932512703 ], [ -103.547550483323718, 19.789290499484938 ], [ -103.543273974022995, 19.792153196738976 ], [ -103.541940921003302, 19.791133410729742 ], [ -103.539773956455605, 19.7908835134421 ], [ -103.538529476082871, 19.790071283221426 ], [ -103.545109445587016, 19.780195553017084 ], [ -103.54711265634981, 19.77189091829241 ], [ -103.552712013643657, 19.76265398162894 ], [ -103.553690534591041, 19.760000363577827 ], [ -103.552687594838744, 19.75692949441757 ], [ -103.548808074981849, 19.754332232657479 ], [ -103.550670882937879, 19.753055363103421 ], [ -103.552993320537055, 19.753715613731064 ], [ -103.556730810983936, 19.750890815946331 ], [ -103.557346478771862, 19.749278563681425 ], [ -103.558729567892627, 19.748277813337268 ], [ -103.559347922712703, 19.746431982944944 ], [ -103.560338938833283, 19.745541956045358 ], [ -103.562277753525564, 19.741404716074559 ], [ -103.564401609466685, 19.741470417510001 ], [ -103.565927872555321, 19.740421169482296 ], [ -103.574075052096347, 19.733077692906292 ], [ -103.57477941071528, 19.732909474270979 ], [ -103.576572438806537, 19.72996710044827 ], [ -103.579783337319626, 19.727870565900229 ], [ -103.582281941391287, 19.724288701198439 ], [ -103.581875685493841, 19.720590247074089 ], [ -103.581017026647743, 19.719508309305837 ], [ -103.584448737532583, 19.718758443146111 ], [ -103.585180375280302, 19.718014327353959 ], [ -103.585604500319207, 19.716436577820311 ], [ -103.588467093925303, 19.716386857382915 ], [ -103.587777944189725, 19.713381863089943 ], [ -103.590776732248344, 19.713025990269099 ], [ -103.594228266082467, 19.714354100746664 ], [ -103.59733286966366, 19.713899564343699 ], [ -103.598583693859041, 19.714876075709334 ], [ -103.598721215644929, 19.716611846387973 ], [ -103.600227580065678, 19.716732031184776 ], [ -103.603140958989741, 19.71852558955446 ], [ -103.606979986477199, 19.717001456729125 ], [ -103.609080814667607, 19.716782858823574 ], [ -103.610336407398606, 19.716114976516263 ], [ -103.612101554066115, 19.713887989173347 ], [ -103.615222737509242, 19.71261108959914 ], [ -103.617018960143199, 19.710086134490787 ], [ -103.617718785145371, 19.707471397494309 ], [ -103.620550962587998, 19.704276758754549 ], [ -103.623613468017339, 19.702023471402725 ], [ -103.624313452545195, 19.699372560325049 ], [ -103.624203613014444, 19.69659798322051 ], [ -103.623509017550077, 19.695273551524171 ], [ -103.625026186047194, 19.692390355896819 ], [ -103.625551361034653, 19.687499401783359 ], [ -103.618994192769605, 19.685666317354134 ], [ -103.614043254424587, 19.682102801703557 ], [ -103.614086211815987, 19.680081166412421 ], [ -103.616298371286973, 19.676223684295625 ], [ -103.614484729112078, 19.672554186815997 ], [ -103.612518753697373, 19.666520745635395 ], [ -103.613434791759957, 19.664707363050422 ], [ -103.613162400547552, 19.66190967345802 ], [ -103.613712882335335, 19.660734629229385 ], [ -103.615739951430257, 19.659036282192648 ], [ -103.616222687982898, 19.657798511609119 ], [ -103.617894261728182, 19.655977048640104 ], [ -103.618929337397915, 19.652123133429708 ], [ -103.620440798120271, 19.652125087013761 ], [ -103.621821085813508, 19.649953240050735 ], [ -103.621897478510931, 19.648339158106936 ], [ -103.616979470353797, 19.639360401952004 ], [ -103.616614178619315, 19.634420222889585 ], [ -103.615996800669805, 19.633176104462322 ], [ -103.613916337941916, 19.631956657065228 ], [ -103.613148564176171, 19.630931648635283 ], [ -103.612538417756085, 19.627874828903238 ], [ -103.612763399939155, 19.625878558872742 ], [ -103.614878805892417, 19.623608368056985 ], [ -103.61542478510637, 19.621264282809008 ], [ -103.616497067292613, 19.620554982016493 ], [ -103.615776586530728, 19.618677555753113 ], [ -103.61920998118589, 19.615468820667502 ], [ -103.617807450501445, 19.613335903502083 ], [ -103.617854467582021, 19.612465359854006 ], [ -103.616630431681173, 19.610058643757032 ], [ -103.61677403533821, 19.603640599041778 ], [ -103.61717665921708, 19.60292033288524 ], [ -103.615450452259438, 19.599286457924144 ], [ -103.611123464279487, 19.59242676873146 ], [ -103.610166991987086, 19.589980954990406 ], [ -103.610032294736129, 19.589103306831717 ], [ -103.611895485328574, 19.584959953670829 ], [ -103.615696560165603, 19.585399732756954 ], [ -103.622367397876644, 19.582745496288691 ], [ -103.627674003860378, 19.585153544060542 ], [ -103.632347720249683, 19.585801019729715 ], [ -103.634158538794679, 19.58690524556463 ], [ -103.6419341079812, 19.588660795410686 ], [ -103.646716739665138, 19.58565438086956 ], [ -103.651195934292048, 19.590744123347541 ], [ -103.652490126423359, 19.591020002373643 ], [ -103.655421794237768, 19.593063326934335 ], [ -103.657405757250359, 19.59579669273193 ], [ -103.660586117159696, 19.597048741067006 ], [ -103.662953126160346, 19.596687422509007 ], [ -103.665150733015636, 19.594207238120429 ], [ -103.667978702422587, 19.592454163745604 ], [ -103.669910834785171, 19.592505354728502 ], [ -103.673845638811343, 19.59134715802854 ], [ -103.676556183632144, 19.591715910372379 ], [ -103.685378721782882, 19.594554239699281 ], [ -103.687765192892755, 19.594228567190381 ], [ -103.688510583447254, 19.593422725276994 ], [ -103.692581533939801, 19.593993512423008 ], [ -103.696851827205123, 19.592912525913146 ], [ -103.699612961285737, 19.596957120181941 ], [ -103.700009331281478, 19.598594740915448 ], [ -103.702613926954612, 19.599935714979317 ], [ -103.70561434850444, 19.602667879938561 ], [ -103.712830413002138, 19.604029695187602 ], [ -103.717183879380528, 19.603292742668554 ], [ -103.722660358537425, 19.606430771574363 ], [ -103.725410178504433, 19.605935233526036 ], [ -103.727942354302058, 19.60644103977415 ], [ -103.729985307704524, 19.606112110247153 ], [ -103.730893049727015, 19.607076255046991 ], [ -103.732946017615845, 19.607903888868378 ], [ -103.739149713868969, 19.608326903275252 ], [ -103.741205417021249, 19.608811120230879 ], [ -103.742627947920056, 19.609796877183999 ], [ -103.747622036936903, 19.610066589901443 ], [ -103.748955387967086, 19.611494413679804 ], [ -103.751895488782964, 19.612291856542313 ], [ -103.753431341485808, 19.614669770872975 ], [ -103.755886445374074, 19.615310192104058 ], [ -103.759001155938989, 19.6169761303779 ], [ -103.761349862364995, 19.621555192162891 ], [ -103.767029839128085, 19.624467450368407 ], [ -103.770417882552252, 19.625339956192175 ], [ -103.775357366763203, 19.624081558345559 ], [ -103.775934127246416, 19.623471069763408 ], [ -103.777469960904952, 19.62339115157048 ], [ -103.780454872026482, 19.620827251771754 ], [ -103.780622827109738, 19.620051338409972 ], [ -103.784482269148981, 19.619101602618063 ], [ -103.786264979159213, 19.617884801508239 ], [ -103.796268534118781, 19.619027179942833 ], [ -103.799179426216611, 19.617393115274915 ], [ -103.802205073849109, 19.618280678257577 ], [ -103.802984623330431, 19.617310024255229 ], [ -103.806650933073982, 19.616665728308252 ], [ -103.809246707976541, 19.615074582981819 ], [ -103.814365931650045, 19.613933735060602 ], [ -103.816834633370974, 19.615359520179915 ], [ -103.818100338008222, 19.617003270874626 ], [ -103.822099791004305, 19.616433128005909 ], [ -103.825357229273976, 19.616933292251368 ], [ -103.826135785905478, 19.616079987486344 ], [ -103.829992184988015, 19.614189535513198 ], [ -103.832712187746125, 19.620450794160984 ], [ -103.836639494772371, 19.627261960806326 ], [ -103.842793937491848, 19.634728917112039 ], [ -103.844016773772594, 19.635757802671645 ], [ -103.846722498481441, 19.636127555179385 ], [ -103.848143955187766, 19.637392613568736 ], [ -103.849676627274405, 19.636435606364216 ], [ -103.853068085196, 19.636936146361389 ], [ -103.854395917936245, 19.636619322593848 ], [ -103.867581058817876, 19.640884836505922 ], [ -103.87528450409468, 19.6522095315017 ], [ -103.874855663037252, 19.653351955639678 ], [ -103.875901299813577, 19.654374564559348 ], [ -103.878074162462639, 19.654623064796827 ], [ -103.88060933483672, 19.656265292017885 ], [ -103.881981591872488, 19.656436473864996 ], [ -103.883377617046335, 19.655930115539888 ], [ -103.884602254705655, 19.656759966677779 ], [ -103.886960493908816, 19.656413154746186 ], [ -103.888329200477727, 19.6557168381918 ], [ -103.890265662017939, 19.655674587669655 ], [ -103.891023187783389, 19.656474405260102 ], [ -103.896209763642489, 19.656768361334883 ], [ -103.897214470977559, 19.65629563361443 ], [ -103.898745744265909, 19.65692848607684 ], [ -103.900932660382622, 19.656526225559865 ], [ -103.903294759715848, 19.657010509853592 ], [ -103.904874581167405, 19.656116565804428 ], [ -103.907591772560622, 19.657687247341528 ], [ -103.909251857883618, 19.65761600599259 ], [ -103.909952067791565, 19.657032928770093 ], [ -103.910361156722033, 19.669893289848382 ], [ -103.906006278730999, 19.685941514630841 ], [ -103.900313216950721, 19.702577486990148 ], [ -103.889289619027906, 19.712864454603917 ], [ -103.885361451334717, 19.725374339164176 ], [ -103.885254021968336, 19.727447716381363 ], [ -103.882486792264501, 19.729265360739717 ], [ -103.876937163139687, 19.729608438292388 ], [ -103.876191768442055, 19.730251368031631 ], [ -103.871474334992868, 19.729798063044719 ], [ -103.870100981829324, 19.730159469195158 ], [ -103.867332453546439, 19.734954689484802 ], [ -103.867603184803755, 19.735805745703903 ], [ -103.870560334585392, 19.735950909680632 ], [ -103.873048315443398, 19.73768333958142 ], [ -103.873948384777805, 19.73724625481757 ], [ -103.874729133235036, 19.737495121531474 ], [ -103.874763108407251, 19.739456059928351 ], [ -103.878179540635202, 19.743534473368666 ], [ -103.879977285036944, 19.744376999956962 ], [ -103.882028317078721, 19.744480170435963 ], [ -103.882966360879522, 19.746817211157577 ], [ -103.88362210979524, 19.747209831472123 ], [ -103.886634543206867, 19.746297916490999 ], [ -103.889564335159719, 19.747671450446092 ], [ -103.890768542884629, 19.747416880239349 ], [ -103.891778023864276, 19.746338854351869 ], [ -103.894415583459534, 19.747195470745371 ], [ -103.897965337520873, 19.745852967678204 ], [ -103.900182340045504, 19.744023322825143 ], [ -103.900467429367581, 19.742805259719049 ], [ -103.899744050674144, 19.742529748053329 ], [ -103.900130319779677, 19.740471990653276 ], [ -103.90190533769325, 19.740464809019979 ], [ -103.904233954463237, 19.739042397154304 ], [ -103.904504946329169, 19.738138015254151 ], [ -103.905975200033353, 19.738287045591395 ], [ -103.906821284129464, 19.740596868761209 ], [ -103.906692472999552, 19.745058165868098 ], [ -103.907339316909713, 19.746128685709746 ], [ -103.907619997303399, 19.748391256435628 ], [ -103.908829143288202, 19.749962299665864 ], [ -103.90954951520861, 19.75217401181542 ], [ -103.910411395410378, 19.758317938103104 ], [ -103.912300290690169, 19.762599763021313 ], [ -103.911877698096887, 19.764544917109944 ], [ -103.912454486980039, 19.770148631045242 ], [ -103.914317809011578, 19.773279594481838 ], [ -103.914723753700386, 19.775585957249525 ], [ -103.913943251182104, 19.778632496340666 ], [ -103.915747746919777, 19.781655437277898 ], [ -103.917259882891656, 19.788380502854114 ], [ -103.914668892426192, 19.790706669938245 ], [ -103.914169895744848, 19.791991117188402 ], [ -103.914273968668127, 19.793938744838975 ], [ -103.916839563668816, 19.797269374907671 ], [ -103.91788017476604, 19.797718515148372 ], [ -103.918165696473395, 19.799868622892657 ], [ -103.911682608038319, 19.798732174402609 ], [ -103.909111305912958, 19.802023532729859 ], [ -103.905426499712789, 19.80479299981458 ], [ -103.903366917483027, 19.804427980444835 ], [ -103.901589453836579, 19.804688128775773 ], [ -103.897475366570021, 19.803226127515405 ], [ -103.894752713853578, 19.803498443752705 ], [ -103.893801210315104, 19.804423219682079 ], [ -103.892810241907625, 19.806910900129818 ], [ -103.891860270693812, 19.80760978423794 ], [ -103.890980614690136, 19.81055895613942 ], [ -103.889969572135996, 19.811799583304087 ], [ -103.889697137591156, 19.813912211462348 ], [ -103.887724159340777, 19.813439120317529 ], [ -103.886254557862742, 19.816086413529757 ], [ -103.884356394337672, 19.81720400735114 ], [ -103.882301210162041, 19.817561611486042 ], [ -103.880301396092179, 19.81955497053195 ], [ -103.879256315273125, 19.821545265390881 ], [ -103.879157595422242, 19.823369822290978 ], [ -103.878455317516739, 19.824124395457321 ], [ -103.878687093331322, 19.825110723788789 ], [ -103.878329210990415, 19.825768068393277 ], [ -103.878946985922624, 19.827533876653824 ], [ -103.878253255878874, 19.829788397810759 ], [ -103.874647929690596, 19.831952292556551 ], [ -103.873954438988207, 19.832806290783761 ], [ -103.869299479035632, 19.830807116439253 ], [ -103.863632354077041, 19.831521063609244 ], [ -103.860964976229454, 19.830663758211635 ], [ -103.859729328092158, 19.831216066304087 ], [ -103.858785005847736, 19.832420782620211 ], [ -103.853410486626515, 19.834925291567213 ], [ -103.848076484013845, 19.835915078742136 ], [ -103.845110850313247, 19.839181662942885 ] ] ] } }
]
}
